[{"OBJECT_NAME":"ONEWEB-0594","OBJECT_ID":"2022-166U","EPOCH":"2026-03-09T23:10:31.522368","MEAN_MOTION":13.21823766,"ECCENTRICITY":0.00017237,"INCLINATION":87.9163,"RA_OF_ASC_NODE":263.7797,"ARG_OF_PERICENTER":94.7567,"MEAN_ANOMALY":265.3764,"EPHEMERIS_TYPE":0,"CLASSIFICATION_TYPE":"U","NORAD_CAT_ID":54660,"ELEMENT_SET_NO":999,"REV_AT_EPOCH":15845,"BSTAR":3.993666e-6,"MEAN_MOTION_DOT":1.5e-7,"MEAN_MOTION_DDOT":0},{"OBJECT_NAME":"DELTA 1 DEB","OBJECT_ID":"1975-052DW","EPOCH":"2026-03-08T17:49:22.175328","MEAN_MOTION":13.31008227,"ECCENTRICITY":0.00797502,"INCLINATION":99.728,"RA_OF_ASC_NODE":348.1339,"ARG_OF_PERICENTER":158.2866,"MEAN_ANOMALY":260.1259,"EPHEMERIS_TYPE":0,"CLASSIFICATION_TYPE":"U","NORAD_CAT_ID":21438,"ELEMENT_SET_NO":999,"REV_AT_EPOCH":69088,"BSTAR":0.00073328319,"MEAN_MOTION_DOT":3.13e-6,"MEAN_MOTION_DDOT":0}]
